0 OPS 4682 DEB
1 18967U 65027AP  13282.24274547 -.00000112  00000-0 -42814-3 0   238
2 18967 090.2865 251.7771 0029044 068.3087 358.4518 12.94594574218638
0 OPS 4682 DEB
1 18967U 65027AP  13284.17327939  .00000384  00000-0  13485-2 0   247
2 18967 090.2867 251.8277 0029020 063.5691 355.4801 12.94590332218881
0 OPS 4682 DEB
1 18967U 65027AP  13286.35777382  .00000611  00000-0  21613-2 0   267
2 18967 090.2871 251.8848 0028987 058.1912 096.0423 12.94589889219162
0 OPS 4682 DEB
1 18967U 65027AP  13287.66472345  .00000459  00000-0  16169-2 0   274
2 18967 090.2875 251.9189 0028942 054.9730 066.9031 12.94593052219335
0 OPS 4682 DEB
1 18967U 65027AP  13288.67012998  .00000202  00000-0  69725-3 0   284
2 18967 090.2877 251.9452 0028919 052.4980 072.4635 12.94596146219467
0 OPS 4682 DEB
1 18967U 65027AP  13289.67446997 -.00000065  00000-0 -25980-3 0   290
2 18967 090.2879 251.9715 0028926 050.0446 073.0420 12.94598938219594
0 OPS 4682 DEB
1 18967U 65027AP  13290.89659740 -.00000246  00000-0 -90874-3 0   305
2 18967 090.2882 252.0037 0028891 047.0349 008.6280 12.94600618219751
0 OPS 4682 DEB
1 18967U 65027AP  13292.21221363 -.00000168  00000-0 -62952-3 0   319
2 18967 090.2883 252.0383 0028843 043.7925 019.9304 12.94599540219928
0 OPS 4682 DEB
1 18967U 65027AP  13294.14327697  .00000305  00000-0  10653-2 0   322
2 18967 090.2884 252.0893 0028766 039.0191 019.4901 12.94595267220171
0 OPS 4682 DEB
1 18967U 65027AP  13295.16322192  .00000570  00000-0  20146-2 0   333
2 18967 090.2885 252.1163 0028733 036.4957 092.8540 12.94593686220300
